LEDSAT                  
1 49069U 21073D   24192.47647150  .00015940  00000+0  62570-3 0  9994
2 49069  97.4362 263.4632 0019025 197.2787 162.7806 15.25634405160007
XW-3 (CAS-9)            
1 50466U 21131B   24192.54720936  .00000778  00000+0  26264-3 0  9997
2 50466  98.5286 277.5083 0005173  66.4184 293.7547 14.39708895133365
TEVEL-3                 
1 50988U 22002E   24192.46674344  .00298395  00000+0  15816-2 0  9990
2 50988  97.3706 269.7276 0007303 236.4081 123.6490 15.79706540138719
TEVEL-8                 
1 50989U 22002F   24192.57620708  .00313846  00000+0  16837-2 0  9991
2 50989  97.3728 269.9345 0007175 237.5651 122.4923 15.79399621138722
TEVEL-5                 
1 50998U 22002Q   24192.46423202  .00842297  32824-3  18243-2 0  9992
2 50998  97.3674 271.6401 0011902 251.0409 108.9579 15.98295273138848
TEVEL-6                 
1 50999U 22002R   24192.48553232  .00779176  27137-3  18166-2 0  9992
2 50999  97.3621 271.5864 0011142 247.4547 112.5551 15.96961256138841
TEVEL-1                 
1 51013U 22002AF  24192.18741989  .00296300  00000+0  16191-2 0  9990
2 51013  97.3695 269.2629 0007243 234.1396 125.9199 15.79034178138666
TEVEL-7                 
1 51062U 22002CG  24192.55646027  .00319540  00000+0  16785-2 0  9993
2 51062  97.3708 269.8991 0007326 235.2202 124.8377 15.79851631138727
TEVEL-4                 
1 51063U 22002CH  24192.55413708  .00295987  00000+0  16534-2 0  9992
2 51063  97.3716 269.7431 0007213 233.5858 126.4744 15.78542409138712
TEVEL-2                 
1 51069U 22002CP  24192.46331906  .00304756  00000+0  16112-2 0  9994
2 51069  97.3705 269.6921 0007286 236.0787 123.9788 15.79746948138713
GREENCUBE               
1 53106U 22080B   24192.31461556 -.00000003  00000+0  00000+0 0  9998
2 53106  70.1322 184.4864 0007578 102.1342 258.0167  6.42557683 46754
KAI-1 (RS26S)           
1 53378U 22096J   24192.07566294  .00182242  00000+0  10340-2 0  9990
2 53378  97.3924 112.4687 0006570 128.0066 232.1794 15.78497627107835
CAS-5A (FO-118)         
1 54684U 22167C   24192.60064340  .00026088  00000+0  85502-3 0  9992
2 54684  97.6081 338.0083 0009891  68.1230 292.1061 15.31576160 87889
STRATOSAT-TK 1 (RS52S)  
1 57167U 23091B   24192.56953255  .00014964  00000+0  84410-3 0  9992
2 57167  97.6092 245.5859 0015342  45.2320 315.0157 15.13162044 57090
UMKA 1 (RS40S)          
1 57172U 23091G   24192.56025994  .00006422  00000+0  42134-3 0  9995
2 57172  97.6097 244.3720 0017459  46.5817 313.6860 15.07882478 57011
CUBESX-HSE 3 (RS42S)    
1 57178U 23091N   24192.56029144  .00008602  00000+0  54046-3 0  9999
2 57178  97.6134 244.8590 0017647  40.8864 319.3685 15.09371461 57034
MONITOR-4 (RS57S)       
1 57182U 23091S   24192.55537826  .00007699  00000+0  49080-3 0  9991
2 57182  97.6124 244.6545 0018117  42.0220 318.2394 15.08868694 57021
MONITOR-2 (RS39S)       
1 57184U 23091U   24192.58908824  .00004335  00000+0  28566-3 0  9996
2 57184  97.6126 244.7895 0014777  37.4972 322.7284 15.07946466 57036
SVYATOBOR 1 (RS60S)     
1 57187U 23091X   24192.58712636  .00006037  00000+0  37900-3 0  9996
2 57187  97.6127 245.2590 0013969  34.8880 325.3262 15.09578034 57061
VIZARD-METEO (RS38S)    
1 57189U 23091Z   24192.58685328  .00007947  00000+0  47796-3 0  9990
2 57189  97.6120 245.6834 0012656  32.9819 327.2198 15.11055691 57098
NANOZOND 1 (RS49S)      
1 57190U 23091AA  24192.54818265  .00012476  00000+0  69345-3 0  9993
2 57190  97.6098 246.2218 0011025  38.8550 321.3472 15.13783506 57133
POLYTECH-UNIVERSE 3 (R*)
1 57191U 23091AB  24192.59457238  .00004688  00000+0  30829-3 0  9999
2 57191  97.6095 244.4676 0020587  52.2115 308.0973 15.07895606 57023
UTMN 2 (RS27S)          
1 57203U 23091AP  24192.58553236  .00007316  00000+0  44667-3 0  9993
2 57203  97.6118 245.5286 0013077  33.1068 327.0977 15.10534301 57080
ARCCUBE 1 (RS25S)       
1 57205U 23091AR  24192.57407704  .00015277  00000+0  81956-3 0  9999
2 57205  97.6063 246.3871 0010938  39.2589 320.9434 15.14999770 57155
KUZGTU 1 (RS47S)        
1 57217U 23091AV  24192.57116977  .00008368  00000+0  52817-3 0  9998
2 57217  97.6104 244.7231 0017567  42.1228 318.1347 15.09215612 57033
HADES-D (SO-121)        
1 58567U 23174CY  24192.12920647  .00047302  00000+0  15091-2 0  9990
2 58567  97.4520 267.9654 0012971 149.1363 211.0644 15.32272808 37293
